[{"OBJECT_NAME":"STARLINK-31905","OBJECT_ID":"2024-100M","EPOCH":"2026-03-09T03:40:59.554848","MEAN_MOTION":15.27574954,"ECCENTRICITY":0.00011304,"INCLINATION":43.0007,"RA_OF_ASC_NODE":125.0691,"ARG_OF_PERICENTER":220.3311,"MEAN_ANOMALY":139.7457,"EPHEMERIS_TYPE":0,"CLASSIFICATION_TYPE":"U","NORAD_CAT_ID":59896,"ELEMENT_SET_NO":999,"REV_AT_EPOCH":10111,"BSTAR":-1.2087941e-5,"MEAN_MOTION_DOT":-5.95e-6,"MEAN_MOTION_DDOT":0},{"OBJECT_NAME":"OBJECT G","OBJECT_ID":"2025-155G","EPOCH":"2026-03-09T22:09:56.639808","MEAN_MOTION":15.27590702,"ECCENTRICITY":0.00081871,"INCLINATION":97.4488,"RA_OF_ASC_NODE":37.3259,"ARG_OF_PERICENTER":154.1528,"MEAN_ANOMALY":206.0122,"EPHEMERIS_TYPE":0,"CLASSIFICATION_TYPE":"U","NORAD_CAT_ID":64882,"ELEMENT_SET_NO":999,"REV_AT_EPOCH":6559,"BSTAR":0.0004792617,"MEAN_MOTION_DOT":0.00012876,"MEAN_MOTION_DDOT":0}]
